{
    "links": {
        "self": "http://www.neowsapp.com/rest/v1/neo/3645463?api_key=iIulBulltgU6a56xZRHN4H3l9WmuAYTsLGpBGhQ2"
    },
    "id": "3645463",
    "neo_reference_id": "3645463",
    "name": "(2013 PS20)",
    "designation": "2013 PS20",
    "nasa_jpl_url": "http://ssd.jpl.nasa.gov/sbdb.cgi?sstr=3645463",
    "absolute_magnitude_h": 24.1,
    "estimated_diameter": {
        "kilometers": {
            "estimated_diameter_min": 0.040230458,
            "estimated_diameter_max": 0.0899580388
        },
        "meters": {
            "estimated_diameter_min": 40.2304579834,
            "estimated_diameter_max": 89.9580388169
        },
        "miles": {
            "estimated_diameter_min": 0.0249980399,
            "estimated_diameter_max": 0.0558973165
        },
        "feet": {
            "estimated_diameter_min": 131.9896957704,
            "estimated_diameter_max": 295.1379320721
        }
    },
    "is_potentially_hazardous_asteroid": false,
    "close_approach_data": [
        {
            "close_approach_date": "2013-08-14",
            "close_approach_date_full": "2013-Aug-14 06:37",
            "epoch_date_close_approach": 1376462220000,
            "relative_velocity": {
                "kilometers_per_second": "7.51484239",
                "kilometers_per_hour": "27053.4326041669",
                "miles_per_hour": "16809.9509422947"
            },
            "miss_distance": {
                "astronomical": "0.1602222103",
                "lunar": "62.3264398067",
                "kilometers": "23968901.387572061",
                "miles": "14893584.6975380018"
            },
            "orbiting_body": "Earth"
        }
    ],
    "orbital_data": {
        "orbit_id": "5",
        "orbit_determination_date": "2017-04-06 08:45:11",
        "first_observation_date": "2013-08-08",
        "last_observation_date": "2013-08-10",
        "data_arc_in_days": 2,
        "observations_used": 12,
        "orbit_uncertainty": "8",
        "minimum_orbit_intersection": ".160163",
        "jupiter_tisserand_invariant": "4.632",
        "epoch_osculation": "2456513.5",
        "eccentricity": ".1818708897772869",
        "semi_major_axis": "1.432357207393052",
        "inclination": "14.53320922866889",
        "ascending_node_longitude": "140.2107726770724",
        "orbital_period": "626.145744657514",
        "perihelion_distance": "1.171853127605568",
        "perihelion_argument": "187.7864290945172",
        "aphelion_distance": "1.692861287180536",
        "perihelion_time": "2456526.157672351115",
        "mean_anomaly": "352.7225217367023",
        "mean_motion": ".5749460138819772",
        "equinox": "J2000",
        "orbit_class": {
            "orbit_class_type": "AMO",
            "orbit_class_description": "Near-Earth asteroid orbits similar to that of 1221 Amor",
            "orbit_class_range": "1.017 AU < q (perihelion) < 1.3 AU"
        }
    },
    "is_sentry_object": false
}